{
  "type": "FeatureCollection",
  "features": [
    {
      "type": "Feature",
      "properties": {
        "norad_id": 34420,
        "name": "COSMOS 2251 DEB",
        "group": "cosmos-2251-debris",
        "lat": -41.82833066727647,
        "lon": 97.97182416221082,
        "alt_km": 660.4969060411959,
        "timestamp": "2025-12-08T03:50:07.390361+00:00",
        "meta_object_name": "COSMOS 2251 DEB",
        "meta_object_id": "1993-036RM",
        "meta_epoch": "2025-12-07T03:45:35.879328",
        "meta_mean_motion": 14.68270809,
        "meta_eccentricity": 0.01068626,
        "meta_inclination": 74.0337,
        "meta_ra_of_asc_node": 114.7581,
        "meta_arg_of_pericenter": 237.1854,
        "meta_mean_anomaly": 177.5749,
        "meta_ephemeris_type": 0,
        "meta_classification_type": "U",
        "meta_norad_cat_id": 34420,
        "meta_element_set_no": 999,
        "meta_rev_at_epoch": 89688,
        "meta_bstar": 0.00041987889,
        "meta_mean_motion_dot": 2.605e-05,
        "meta_mean_motion_ddot": 0,
        "tle_line1": "1 34420U 93036RM  25341.15666527  .00002605  00000+0  41988-3 0  9992",
        "tle_line2": "2 34420  74.0337 114.7581 0106862 237.1854 177.5749 14.68270809896883"
      },
      "geometry": {
        "type": "Point",
        "coordinates": [
          97.97182416221082,
          -41.82833066727647
        ]
      }
    },
    {
      "type": "Feature",
      "properties": {
        "norad_id": 34425,
        "name": "COSMOS 2251 DEB",
        "group": "cosmos-2251-debris",
        "lat": 34.42178811271279,
        "lon": -128.02889593343005,
        "alt_km": 671.7246868606871,
        "timestamp": "2025-12-08T03:50:07.390371+00:00",
        "meta_object_name": "COSMOS 2251 DEB",
        "meta_object_id": "1993-036RS",
        "meta_epoch": "2025-12-07T04:11:16.448352",
        "meta_mean_motion": 14.62078035,
        "meta_eccentricity": 0.00252089,
        "meta_inclination": 74.0206,
        "meta_ra_of_asc_node": 65.1828,
        "meta_arg_of_pericenter": 193.188,
        "meta_mean_anomaly": 166.8631,
        "meta_ephemeris_type": 0,
        "meta_classification_type": "U",
        "meta_norad_cat_id": 34425,
        "meta_element_set_no": 999,
        "meta_rev_at_epoch": 88659,
        "meta_bstar": 0.0010312936,
        "meta_mean_motion_dot": 5.177e-05,
        "meta_mean_motion_ddot": 0,
        "tle_line1": "1 34425U 93036RS  25341.17449593  .00005177  00000+0  10313-2 0  9995",
        "tle_line2": "2 34425  74.0206  65.1828 0025208 193.1880 166.8631 14.62078035886599"
      },
      "geometry": {
        "type": "Point",
        "coordinates": [
          -128.02889593343005,
          34.42178811271279
        ]
      }
    },
    {
      "type": "Feature",
      "properties": {
        "norad_id": 34429,
        "name": "COSMOS 2251 DEB",
        "group": "cosmos-2251-debris",
        "lat": -8.118625749086462,
        "lon": 175.60585834242616,
        "alt_km": 448.5684226933281,
        "timestamp": "2025-12-08T03:50:07.390381+00:00",
        "meta_object_name": "COSMOS 2251 DEB",
        "meta_object_id": "1993-036RW",
        "meta_epoch": "2025-12-07T00:20:48.101568",
        "meta_mean_motion": 15.38739723,
        "meta_eccentricity": 0.00058591,
        "meta_inclination": 73.9707,
        "meta_ra_of_asc_node": 180.4364,
        "meta_arg_of_pericenter": 25.1654,
        "meta_mean_anomaly": 103.5971,
        "meta_ephemeris_type": 0,
        "meta_classification_type": "U",
        "meta_norad_cat_id": 34429,
        "meta_element_set_no": 999,
        "meta_rev_at_epoch": 89360,
        "meta_bstar": 0.0056865782,
        "meta_mean_motion_dot": 0.0022445,
        "meta_mean_motion_ddot": 0,
        "tle_line1": "1 34429U 93036RW  25341.01444562  .00224450  00000+0  56866-2 0  9993",
        "tle_line2": "2 34429  73.9707 180.4364 0005859  25.1654 103.5971 15.38739723893603"
      },
      "geometry": {
        "type": "Point",
        "coordinates": [
          175.60585834242616,
          -8.118625749086462
        ]
      }
    },
    {
      "type": "Feature",
      "properties": {
        "norad_id": 34430,
        "name": "COSMOS 2251 DEB",
        "group": "cosmos-2251-debris",
        "lat": -60.37598830883379,
        "lon": -78.37710340289509,
        "alt_km": 764.2539425925743,
        "timestamp": "2025-12-08T03:50:07.390391+00:00",
        "meta_object_name": "COSMOS 2251 DEB",
        "meta_object_id": "1993-036RX",
        "meta_epoch": "2025-12-07T06:27:08.070624",
        "meta_mean_motion": 14.39605586,
        "meta_eccentricity": 0.00600784,
        "meta_inclination": 74.0521,
        "meta_ra_of_asc_node": 313.4558,
        "meta_arg_of_pericenter": 24.4481,
        "meta_mean_anomaly": 335.9501,
        "meta_ephemeris_type": 0,
        "meta_classification_type": "U",
        "meta_norad_cat_id": 34430,
        "meta_element_set_no": 999,
        "meta_rev_at_epoch": 87876,
        "meta_bstar": 0.00090298355,
        "meta_mean_motion_dot": 2.856e-05,
        "meta_mean_motion_ddot": 0,
        "tle_line1": "1 34430U 93036RX  25341.26884341  .00002856  00000+0  90298-3 0  9997",
        "tle_line2": "2 34430  74.0521 313.4558 0060078  24.4481 335.9501 14.39605586878767"
      },
      "geometry": {
        "type": "Point",
        "coordinates": [
          -78.37710340289509,
          -60.37598830883379
        ]
      }
    },
    {
      "type": "Feature",
      "properties": {
        "norad_id": 34431,
        "name": "COSMOS 2251 DEB",
        "group": "cosmos-2251-debris",
        "lat": 15.617326138384367,
        "lon": -171.93194985071747,
        "alt_km": 840.4322314046549,
        "timestamp": "2025-12-08T03:50:07.390401+00:00",
        "meta_object_name": "COSMOS 2251 DEB",
        "meta_object_id": "1993-036RY",
        "meta_epoch": "2025-12-06T23:11:25.841184",
        "meta_mean_motion": 14.28747235,
        "meta_eccentricity": 0.00685268,
        "meta_inclination": 74.0746,
        "meta_ra_of_asc_node": 185.6499,
        "meta_arg_of_pericenter": 172.9199,
        "meta_mean_anomaly": 187.2936,
        "meta_ephemeris_type": 0,
        "meta_classification_type": "U",
        "meta_norad_cat_id": 34431,
        "meta_element_set_no": 999,
        "meta_rev_at_epoch": 87060,
        "meta_bstar": 0.00098345369,
        "meta_mean_motion_dot": 2.514e-05,
        "meta_mean_motion_ddot": 0,
        "tle_line1": "1 34431U 93036RY  25340.96627131  .00002514  00000+0  98345-3 0  9998",
        "tle_line2": "2 34431  74.0746 185.6499 0068526 172.9199 187.2936 14.28747235870602"
      },
      "geometry": {
        "type": "Point",
        "coordinates": [
          -171.93194985071747,
          15.617326138384367
        ]
      }
    },
    {
      "type": "Feature",
      "properties": {
        "norad_id": 34432,
        "name": "COSMOS 2251 DEB",
        "group": "cosmos-2251-debris",
        "lat": 73.48482619115224,
        "lon": -171.47320542360845,
        "alt_km": 913.2529036631258,
        "timestamp": "2025-12-08T03:50:07.390411+00:00",
        "meta_object_name": "COSMOS 2251 DEB",
        "meta_object_id": "1993-036RZ",
        "meta_epoch": "2025-12-06T19:27:40.191840",
        "meta_mean_motion": 14.02867127,
        "meta_eccentricity": 0.0182941,
        "meta_inclination": 73.8288,
        "meta_ra_of_asc_node": 112.7701,
        "meta_arg_of_pericenter": 196.3544,
        "meta_mean_anomaly": 282.3936,
        "meta_ephemeris_type": 0,
        "meta_classification_type": "U",
        "meta_norad_cat_id": 34432,
        "meta_element_set_no": 999,
        "meta_rev_at_epoch": 85601,
        "meta_bstar": 0.0021297689,
        "meta_mean_motion_dot": 3.799e-05,
        "meta_mean_motion_ddot": 0,
        "tle_line1": "1 34432U 93036RZ  25340.81088185  .00003799  00000+0  21298-2 0  9991",
        "tle_line2": "2 34432  73.8288 112.7701 0182941 196.3544 282.3936 14.02867127856011"
      },
      "geometry": {
        "type": "Point",
        "coordinates": [
          -171.47320542360845,
          73.48482619115224
        ]
      }
    },
    {
      "type": "Feature",
      "properties": {
        "norad_id": 34433,
        "name": "COSMOS 2251 DEB",
        "group": "cosmos-2251-debris",
        "lat": -48.09951382459212,
        "lon": 144.41603312105272,
        "alt_km": 747.3116310046535,
        "timestamp": "2025-12-08T03:50:07.390421+00:00",
        "meta_object_name": "COSMOS 2251 DEB",
        "meta_object_id": "1993-036SA",
        "meta_epoch": "2025-12-06T23:10:46.553376",
        "meta_mean_motion": 14.12814764,
        "meta_eccentricity": 0.01518101,
        "meta_inclination": 74.0114,
        "meta_ra_of_asc_node": 165.1647,
        "meta_arg_of_pericenter": 304.4517,
        "meta_mean_anomaly": 54.2355,
        "meta_ephemeris_type": 0,
        "meta_classification_type": "U",
        "meta_norad_cat_id": 34433,
        "meta_element_set_no": 999,
        "meta_rev_at_epoch": 85868,
        "meta_bstar": 0.0019334239,
        "meta_mean_motion_dot": 3.984e-05,
        "meta_mean_motion_ddot": 0,
        "tle_line1": "1 34433U 93036SA  25340.96581659  .00003984  00000+0  19334-2 0  9996",
        "tle_line2": "2 34433  74.0114 165.1647 0151810 304.4517  54.2355 14.12814764858683"
      },
      "geometry": {
        "type": "Point",
        "coordinates": [
          144.41603312105272,
          -48.09951382459212
        ]
      }
    }
  ]
}